{
  "type": "FeatureCollection",
  "features": [
    {
      "type": "Feature",
      "properties": {
        "norad_id": 31877,
        "name": "FENGYUN 1C DEB",
        "group": "fengyun-1c-debris",
        "lat": -8.42880175720964,
        "lon": -117.52971511389923,
        "alt_km": 541.9600190703932,
        "timestamp": "2025-12-18T15:47:11.507790+00:00",
        "meta_object_name": "FENGYUN 1C DEB",
        "meta_object_id": "1999-025CKC",
        "meta_epoch": "2025-12-17T03:45:25.024032",
        "meta_mean_motion": 15.01619291,
        "meta_eccentricity": 0.01044142,
        "meta_inclination": 99.0034,
        "meta_ra_of_asc_node": 62.077,
        "meta_arg_of_pericenter": 264.6102,
        "meta_mean_anomaly": 94.3199,
        "meta_ephemeris_type": 0,
        "meta_classification_type": "U",
        "meta_norad_cat_id": 31877,
        "meta_element_set_no": 999,
        "meta_rev_at_epoch": 99108,
        "meta_bstar": 0.00075887909,
        "meta_mean_motion_dot": 0.00010994,
        "meta_mean_motion_ddot": 0,
        "tle_line1": "1 31877U 99025CKC 25351.15653963  .00010994  00000+0  75888-3 0  9996",
        "tle_line2": "2 31877  99.0034  62.0770 0104414 264.6102  94.3199 15.01619291991087"
      },
      "geometry": {
        "type": "Point",
        "coordinates": [
          -117.52971511389923,
          -8.42880175720964
        ]
      }
    },
    {
      "type": "Feature",
      "properties": {
        "norad_id": 31878,
        "name": "FENGYUN 1C DEB",
        "group": "fengyun-1c-debris",
        "lat": 72.52462935872396,
        "lon": -114.60348950393019,
        "alt_km": 651.4249713961244,
        "timestamp": "2025-12-18T15:47:11.507800+00:00",
        "meta_object_name": "FENGYUN 1C DEB",
        "meta_object_id": "1999-025CKD",
        "meta_epoch": "2025-12-03T00:27:41.548032",
        "meta_mean_motion": 14.85464766,
        "meta_eccentricity": 0.00842743,
        "meta_inclination": 99.4399,
        "meta_ra_of_asc_node": 258.7733,
        "meta_arg_of_pericenter": 269.6043,
        "meta_mean_anomaly": 89.551,
        "meta_ephemeris_type": 0,
        "meta_classification_type": "U",
        "meta_norad_cat_id": 31878,
        "meta_element_set_no": 999,
        "meta_rev_at_epoch": 97949,
        "meta_bstar": 0.0019397439,
        "meta_mean_motion_dot": 0.000178,
        "meta_mean_motion_ddot": 0,
        "tle_line1": "1 31878U 99025CKD 25337.01923088  .00017800  00000+0  19397-2 0  9999",
        "tle_line2": "2 31878  99.4399 258.7733 0084274 269.6043  89.5510 14.85464766979499"
      },
      "geometry": {
        "type": "Point",
        "coordinates": [
          -114.60348950393019,
          72.52462935872396
        ]
      }
    },
    {
      "type": "Feature",
      "properties": {
        "norad_id": 31879,
        "name": "FENGYUN 1C DEB",
        "group": "fengyun-1c-debris",
        "lat": 28.341564559477455,
        "lon": -133.35064141049108,
        "alt_km": 600.013078679207,
        "timestamp": "2025-12-18T15:47:11.507810+00:00",
        "meta_object_name": "FENGYUN 1C DEB",
        "meta_object_id": "1999-025CKE",
        "meta_epoch": "2025-12-17T14:41:46.018752",
        "meta_mean_motion": 14.42918004,
        "meta_eccentricity": 0.02095747,
        "meta_inclination": 99.7075,
        "meta_ra_of_asc_node": 230.7569,
        "meta_arg_of_pericenter": 22.6508,
        "meta_mean_anomaly": 338.3762,
        "meta_ephemeris_type": 0,
        "meta_classification_type": "U",
        "meta_norad_cat_id": 31879,
        "meta_element_set_no": 999,
        "meta_rev_at_epoch": 63280,
        "meta_bstar": 0.00026359007,
        "meta_mean_motion_dot": 1.081e-05,
        "meta_mean_motion_ddot": 0,
        "tle_line1": "1 31879U 99025CKE 25351.61233818  .00001081  00000+0  26359-3 0  9998",
        "tle_line2": "2 31879  99.7075 230.7569 0209574  22.6508 338.3762 14.42918004632803"
      },
      "geometry": {
        "type": "Point",
        "coordinates": [
          -133.35064141049108,
          28.341564559477455
        ]
      }
    },
    {
      "type": "Feature",
      "properties": {
        "norad_id": 31880,
        "name": "FENGYUN 1C DEB",
        "group": "fengyun-1c-debris",
        "lat": -62.115958685599196,
        "lon": -43.62012012187344,
        "alt_km": 964.8510271649684,
        "timestamp": "2025-12-18T15:47:11.507821+00:00",
        "meta_object_name": "FENGYUN 1C DEB",
        "meta_object_id": "1999-025CKF",
        "meta_epoch": "2025-12-11T16:42:46.632384",
        "meta_mean_motion": 13.89397693,
        "meta_eccentricity": 0.01281078,
        "meta_inclination": 100.0286,
        "meta_ra_of_asc_node": 148.4273,
        "meta_arg_of_pericenter": 154.5547,
        "meta_mean_anomaly": 206.199,
        "meta_ephemeris_type": 0,
        "meta_classification_type": "U",
        "meta_norad_cat_id": 31880,
        "meta_element_set_no": 999,
        "meta_rev_at_epoch": 62965,
        "meta_bstar": 0.00070027147,
        "meta_mean_motion_dot": 8.62e-06,
        "meta_mean_motion_ddot": 0,
        "tle_line1": "1 31880U 99025CKF 25345.69637306  .00000862  00000+0  70027-3 0  9998",
        "tle_line2": "2 31880 100.0286 148.4273 0128107 154.5547 206.1990 13.89397693629651"
      },
      "geometry": {
        "type": "Point",
        "coordinates": [
          -43.62012012187344,
          -62.115958685599196
        ]
      }
    },
    {
      "type": "Feature",
      "properties": {
        "norad_id": 31882,
        "name": "FENGYUN 1C DEB",
        "group": "fengyun-1c-debris",
        "lat": -38.28148747271031,
        "lon": -77.71789160253464,
        "alt_km": 865.6928145910151,
        "timestamp": "2025-12-18T15:47:11.507833+00:00",
        "meta_object_name": "FENGYUN 1C DEB",
        "meta_object_id": "1999-025CKH",
        "meta_epoch": "2025-12-18T00:40:31.724544",
        "meta_mean_motion": 14.12983565,
        "meta_eccentricity": 0.0035355,
        "meta_inclination": 98.9173,
        "meta_ra_of_asc_node": 274.5372,
        "meta_arg_of_pericenter": 209.4535,
        "meta_mean_anomaly": 150.4646,
        "meta_ephemeris_type": 0,
        "meta_classification_type": "U",
        "meta_norad_cat_id": 31882,
        "meta_element_set_no": 999,
        "meta_rev_at_epoch": 58711,
        "meta_bstar": 0.0005205777,
        "meta_mean_motion_dot": 9.32e-06,
        "meta_mean_motion_ddot": 0,
        "tle_line1": "1 31882U 99025CKH 25352.02814496  .00000932  00000+0  52058-3 0  9994",
        "tle_line2": "2 31882  98.9173 274.5372 0035355 209.4535 150.4646 14.12983565587112"
      },
      "geometry": {
        "type": "Point",
        "coordinates": [
          -77.71789160253464,
          -38.28148747271031
        ]
      }
    },
    {
      "type": "Feature",
      "properties": {
        "norad_id": 31883,
        "name": "FENGYUN 1C DEB",
        "group": "fengyun-1c-debris",
        "lat": 69.21591438413228,
        "lon": 114.65751323803771,
        "alt_km": 613.6277509513257,
        "timestamp": "2025-12-18T15:47:11.507844+00:00",
        "meta_object_name": "FENGYUN 1C DEB",
        "meta_object_id": "1999-025CKJ",
        "meta_epoch": "2025-12-18T05:29:12.720480",
        "meta_mean_motion": 14.67771489,
        "meta_eccentricity": 0.0124854,
        "meta_inclination": 99.0292,
        "meta_ra_of_asc_node": 269.416,
        "meta_arg_of_pericenter": 52.3852,
        "meta_mean_anomaly": 308.8606,
        "meta_ephemeris_type": 0,
        "meta_classification_type": "U",
        "meta_norad_cat_id": 31883,
        "meta_element_set_no": 999,
        "meta_rev_at_epoch": 98059,
        "meta_bstar": 0.00058279736,
        "meta_mean_motion_dot": 3.674e-05,
        "meta_mean_motion_ddot": 0,
        "tle_line1": "1 31883U 99025CKJ 25352.22861945  .00003674  00000+0  58280-3 0  9997",
        "tle_line2": "2 31883  99.0292 269.4160 0124854  52.3852 308.8606 14.67771489980599"
      },
      "geometry": {
        "type": "Point",
        "coordinates": [
          114.65751323803771,
          69.21591438413228
        ]
      }
    },
    {
      "type": "Feature",
      "properties": {
        "norad_id": 31887,
        "name": "FENGYUN 1C DEB",
        "group": "fengyun-1c-debris",
        "lat": 36.58608382082514,
        "lon": 37.94802112475468,
        "alt_km": 686.8474095636393,
        "timestamp": "2025-12-18T15:47:11.507854+00:00",
        "meta_object_name": "FENGYUN 1C DEB",
        "meta_object_id": "1999-025CKN",
        "meta_epoch": "2025-12-17T21:29:51.977472",
        "meta_mean_motion": 14.57822744,
        "meta_eccentricity": 0.00239553,
        "meta_inclination": 99.5345,
        "meta_ra_of_asc_node": 44.2427,
        "meta_arg_of_pericenter": 348.6821,
        "meta_mean_anomaly": 11.3832,
        "meta_ephemeris_type": 0,
        "meta_classification_type": "U",
        "meta_norad_cat_id": 31887,
        "meta_element_set_no": 999,
        "meta_rev_at_epoch": 96683,
        "meta_bstar": 0.00059528528,
        "meta_mean_motion_dot": 2.676e-05,
        "meta_mean_motion_ddot": 0,
        "tle_line1": "1 31887U 99025CKN 25351.89574048  .00002676  00000+0  59529-3 0  9996",
        "tle_line2": "2 31887  99.5345  44.2427 0023955 348.6821  11.3832 14.57822744966837"
      },
      "geometry": {
        "type": "Point",
        "coordinates": [
          37.94802112475468,
          36.58608382082514
        ]
      }
    }
  ]
}